CCSDS_OMM_VERS = 2.0
CREATION_DATE  = 
ORIGINATOR     = 

OBJECT_NAME    = SL-4 R/B
OBJECT_ID      = 2014-021B
CENTER_NAME    = EARTH
REF_FRAME      = TEME
TIME_SYSTEM    = UTC
MEAN_ELEMENT_THEORY = SGP/SGP4

EPOCH          = 2025-12-16T07:44:28.476384
MEAN_MOTION    = 15.36755679
ECCENTRICITY   = .01014906
INCLINATION    = 51.6085
RA_OF_ASC_NODE = 23.1816
ARG_OF_PERICENTER = 159.0918
MEAN_ANOMALY   = 201.4261

EPHEMERIS_TYPE = 0
CLASSIFICATION_TYPE = U
NORAD_CAT_ID   = 39679
ELEMENT_SET_NO = 999
REV_AT_EPOCH   = 64344
BSTAR          = .21418475E-3
MEAN_MOTION_DOT = .8846E-4
MEAN_MOTION_DDOT = 0

CCSDS_OMM_VERS = 2.0
CREATION_DATE  = 
ORIGINATOR     = 

OBJECT_NAME    = ALOS-2
OBJECT_ID      = 2014-029A
CENTER_NAME    = EARTH
REF_FRAME      = TEME
TIME_SYSTEM    = UTC
MEAN_ELEMENT_THEORY = SGP/SGP4

EPOCH          = 2025-12-16T07:51:43.796736
MEAN_MOTION    = 14.79470048
ECCENTRICITY   = .00013602
INCLINATION    = 97.9224
RA_OF_ASC_NODE = 85.1224
ARG_OF_PERICENTER = 96.1156
MEAN_ANOMALY   = 264.0211

EPHEMERIS_TYPE = 0
CLASSIFICATION_TYPE = U
NORAD_CAT_ID   = 39766
ELEMENT_SET_NO = 999
REV_AT_EPOCH   = 62454
BSTAR          = .20606746E-3
MEAN_MOTION_DOT = .1488E-4
MEAN_MOTION_DDOT = 0

CCSDS_OMM_VERS = 2.0
CREATION_DATE  = 
ORIGINATOR     = 

OBJECT_NAME    = YAOGAN-29
OBJECT_ID      = 2015-069A
CENTER_NAME    = EARTH
REF_FRAME      = TEME
TIME_SYSTEM    = UTC
MEAN_ELEMENT_THEORY = SGP/SGP4

EPOCH          = 2025-12-16T07:52:56.130816
MEAN_MOTION    = 14.82886718
ECCENTRICITY   = .00001889
INCLINATION    = 98.0223
RA_OF_ASC_NODE = 13.5121
ARG_OF_PERICENTER = 201.7531
MEAN_ANOMALY   = 158.3674

EPHEMERIS_TYPE = 0
CLASSIFICATION_TYPE = U
NORAD_CAT_ID   = 41038
ELEMENT_SET_NO = 999
REV_AT_EPOCH   = 54352
BSTAR          = .25498115E-4
MEAN_MOTION_DOT = .153E-5
MEAN_MOTION_DDOT = 0

CCSDS_OMM_VERS = 2.0
CREATION_DATE  = 
ORIGINATOR     = 

OBJECT_NAME    = ASTRO-H (HITOMI)
OBJECT_ID      = 2016-012A
CENTER_NAME    = EARTH
REF_FRAME      = TEME
TIME_SYSTEM    = UTC
MEAN_ELEMENT_THEORY = SGP/SGP4

EPOCH          = 2025-12-15T22:20:00.325248
MEAN_MOTION    = 15.09374122
ECCENTRICITY   = .00096339
INCLINATION    = 30.9977
RA_OF_ASC_NODE = 176.8014
ARG_OF_PERICENTER = 211.1588
MEAN_ANOMALY   = 148.8480

EPHEMERIS_TYPE = 0
CLASSIFICATION_TYPE = U
NORAD_CAT_ID   = 41337
ELEMENT_SET_NO = 999
REV_AT_EPOCH   = 53956
BSTAR          = .14356688E-3
MEAN_MOTION_DOT = .2446E-4
MEAN_MOTION_DDOT = 0

CCSDS_OMM_VERS = 2.0
CREATION_DATE  = 
ORIGINATOR     = 

OBJECT_NAME    = HXMT (HUIYAN)
OBJECT_ID      = 2017-034A
CENTER_NAME    = EARTH
REF_FRAME      = TEME
TIME_SYSTEM    = UTC
MEAN_ELEMENT_THEORY = SGP/SGP4

EPOCH          = 2025-12-16T08:21:16.297920
MEAN_MOTION    = 15.16278977
ECCENTRICITY   = .0031231
INCLINATION    = 43.0128
RA_OF_ASC_NODE = 119.6029
ARG_OF_PERICENTER = 67.0254
MEAN_ANOMALY   = 293.3884

EPHEMERIS_TYPE = 0
CLASSIFICATION_TYPE = U
NORAD_CAT_ID   = 42758
ELEMENT_SET_NO = 999
REV_AT_EPOCH   = 46988
BSTAR          = .19494594E-3
MEAN_MOTION_DOT = .3648E-4
MEAN_MOTION_DDOT = 0

CCSDS_OMM_VERS = 2.0
CREATION_DATE  = 
ORIGINATOR     = 

OBJECT_NAME    = CZ-2C R/B
OBJECT_ID      = 2018-054D
CENTER_NAME    = EARTH
REF_FRAME      = TEME
TIME_SYSTEM    = UTC
MEAN_ELEMENT_THEORY = SGP/SGP4

EPOCH          = 2025-12-16T03:48:08.757216
MEAN_MOTION    = 15.74821681
ECCENTRICITY   = .00151383
INCLINATION    = 35.1312
RA_OF_ASC_NODE = 157.7013
ARG_OF_PERICENTER = 179.3304
MEAN_ANOMALY   = 180.7452

EPHEMERIS_TYPE = 0
CLASSIFICATION_TYPE = U
NORAD_CAT_ID   = 43521
ELEMENT_SET_NO = 999
REV_AT_EPOCH   = 41559
BSTAR          = .58281587E-3
MEAN_MOTION_DOT = .90837E-3
MEAN_MOTION_DDOT = 0

CCSDS_OMM_VERS = 2.0
CREATION_DATE  = 
ORIGINATOR     = 

OBJECT_NAME    = SAOCOM 1A
OBJECT_ID      = 2018-076A
CENTER_NAME    = EARTH
REF_FRAME      = TEME
TIME_SYSTEM    = UTC
MEAN_ELEMENT_THEORY = SGP/SGP4

EPOCH          = 2025-12-16T09:14:21.047712
MEAN_MOTION    = 14.82161075
ECCENTRICITY   = .0001485
INCLINATION    = 97.8845
RA_OF_ASC_NODE = 174.7536
ARG_OF_PERICENTER = 78.7564
MEAN_ANOMALY   = 281.3816

EPHEMERIS_TYPE = 0
CLASSIFICATION_TYPE = U
NORAD_CAT_ID   = 43641
ELEMENT_SET_NO = 999
REV_AT_EPOCH   = 38902
BSTAR          = .16960516E-4
MEAN_MOTION_DOT = .83E-6
MEAN_MOTION_DDOT = 0

CCSDS_OMM_VERS = 2.0
CREATION_DATE  = 
ORIGINATOR     = 

OBJECT_NAME    = H-2A R/B
OBJECT_ID      = 2018-084L
CENTER_NAME    = EARTH
REF_FRAME      = TEME
TIME_SYSTEM    = UTC
MEAN_ELEMENT_THEORY = SGP/SGP4

EPOCH          = 2025-12-16T06:31:47.758656
MEAN_MOTION    = 15.37500413
ECCENTRICITY   = .00271248
INCLINATION    = 98.8771
RA_OF_ASC_NODE = 185.0832
ARG_OF_PERICENTER = 314.2188
MEAN_ANOMALY   = 45.6824

EPHEMERIS_TYPE = 0
CLASSIFICATION_TYPE = U
NORAD_CAT_ID   = 43682
ELEMENT_SET_NO = 999
REV_AT_EPOCH   = 39294
BSTAR          = .39605376E-3
MEAN_MOTION_DOT = .1465E-3
MEAN_MOTION_DDOT = 0

CCSDS_OMM_VERS = 2.0
CREATION_DATE  = 
ORIGINATOR     = 

OBJECT_NAME    = SAOCOM 1B
OBJECT_ID      = 2020-059A
CENTER_NAME    = EARTH
REF_FRAME      = TEME
TIME_SYSTEM    = UTC
MEAN_ELEMENT_THEORY = SGP/SGP4

EPOCH          = 2025-12-16T08:22:07.407840
MEAN_MOTION    = 14.82166606
ECCENTRICITY   = .00012855
INCLINATION    = 97.8841
RA_OF_ASC_NODE = 173.8182
ARG_OF_PERICENTER = 85.2255
MEAN_ANOMALY   = 274.9105

EPHEMERIS_TYPE = 0
CLASSIFICATION_TYPE = U
NORAD_CAT_ID   = 46265
ELEMENT_SET_NO = 999
REV_AT_EPOCH   = 28640
BSTAR          = .12451349E-3
MEAN_MOTION_DOT = .939E-5
MEAN_MOTION_DDOT = 0

CCSDS_OMM_VERS = 2.0
CREATION_DATE  = 
ORIGINATOR     = 

OBJECT_NAME    = CSS (TIANHE)
OBJECT_ID      = 2021-035A
CENTER_NAME    = EARTH
REF_FRAME      = TEME
TIME_SYSTEM    = UTC
MEAN_ELEMENT_THEORY = SGP/SGP4

EPOCH          = 2025-12-16T07:14:05.691264
MEAN_MOTION    = 15.59326293
ECCENTRICITY   = .00078559
INCLINATION    = 41.4684
RA_OF_ASC_NODE = 355.0821
ARG_OF_PERICENTER = 60.8888
MEAN_ANOMALY   = 299.2736

EPHEMERIS_TYPE = 0
CLASSIFICATION_TYPE = U
NORAD_CAT_ID   = 48274
ELEMENT_SET_NO = 999
REV_AT_EPOCH   = 26458
BSTAR          = .21422181E-3
MEAN_MOTION_DOT = .17088E-3
MEAN_MOTION_DDOT = 0

CCSDS_OMM_VERS = 2.0
CREATION_DATE  = 
ORIGINATOR     = 

OBJECT_NAME    = CZ-2C R/B
OBJECT_ID      = 2022-058K
CENTER_NAME    = EARTH
REF_FRAME      = TEME
TIME_SYSTEM    = UTC
MEAN_ELEMENT_THEORY = SGP/SGP4

EPOCH          = 2025-12-16T06:59:49.481952
MEAN_MOTION    = 15.48681674
ECCENTRICITY   = .0045127
INCLINATION    = 50.1916
RA_OF_ASC_NODE = 25.4340
ARG_OF_PERICENTER = 213.1813
MEAN_ANOMALY   = 146.6323

EPHEMERIS_TYPE = 0
CLASSIFICATION_TYPE = U
NORAD_CAT_ID   = 52794
ELEMENT_SET_NO = 999
REV_AT_EPOCH   = 19718
BSTAR          = .33310988E-3
MEAN_MOTION_DOT = .18495E-3
MEAN_MOTION_DDOT = 0

