SL-4 R/B                
1 39679U 14021B   25350.32255181  .00008846  00000+0  21418-3 0  9998
2 39679  51.6085  23.1816 0101490 159.0918 201.4261 15.36755679643441
ALOS-2                  
1 39766U 14029A   25350.32759024  .00001488  00000+0  20607-3 0  9992
2 39766  97.9224  85.1224 0001360  96.1156 264.0211 14.79470048624547
YAOGAN-29               
1 41038U 15069A   25350.32842744  .00000153  00000+0  25498-4 0  9996
2 41038  98.0223  13.5121 0000188 201.7531 158.3674 14.82886718543527
ASTRO-H (HITOMI)        
1 41337U 16012A   25349.93055932  .00002446  00000+0  14357-3 0  9995
2 41337  30.9977 176.8014 0009633 211.1588 148.8480 15.09374122539564
HXMT (HUIYAN)           
1 42758U 17034A   25350.34810530  .00003648  00000+0  19495-3 0  9991
2 42758  43.0128 119.6029 0031231  67.0254 293.3884 15.16278977469883
CZ-2C R/B               
1 43521U 18054D   25350.15843469  .00090837  00000+0  58282-3 0  9992
2 43521  35.1312 157.7013 0015138 179.3304 180.7452 15.74821681415595
SAOCOM 1A               
1 43641U 18076A   25350.38496583  .00000083  00000+0  16961-4 0  9998
2 43641  97.8845 174.7536 0001485  78.7564 281.3816 14.82161075389025
H-2A R/B                
1 43682U 18084L   25350.27208054  .00014650  00000+0  39605-3 0  9998
2 43682  98.8771 185.0832 0027124 314.2188  45.6824 15.37500413392940
SAOCOM 1B               
1 46265U 20059A   25350.34869685  .00000939  00000+0  12451-3 0  9999
2 46265  97.8841 173.8182 0001285  85.2255 274.9105 14.82166606286403
CSS (TIANHE)            
1 48274U 21035A   25350.30145476  .00017088  00000+0  21422-3 0  9998
2 48274  41.4684 355.0821 0007855  60.8888 299.2736 15.59326293264589
CZ-2C R/B               
1 52794U 22058K   25350.29154493  .00018495  00000+0  33311-3 0  9996
2 52794  50.1916  25.4340 0045127 213.1813 146.6323 15.48681674197188
